[{"OBJECT_NAME":"OTB-3-GAZELLE","OBJECT_ID":"2022-127A","EPOCH":"2026-04-27T05:18:58.428576","MEAN_MOTION":14.42655504,"ECCENTRICITY":0.0012856,"INCLINATION":98.3937,"RA_OF_ASC_NODE":109.7063,"ARG_OF_PERICENTER":348.1171,"MEAN_ANOMALY":11.9714,"EPHEMERIS_TYPE":0,"CLASSIFICATION_TYPE":"U","NORAD_CAT_ID":54023,"ELEMENT_SET_NO":999,"REV_AT_EPOCH":18701,"BSTAR":6.598e-5,"MEAN_MOTION_DOT":1.76e-6,"MEAN_MOTION_DDOT":0},{"OBJECT_NAME":"ASO-S","OBJECT_ID":"2022-129A","EPOCH":"2026-04-27T04:37:03.345312","MEAN_MOTION":14.52036961,"ECCENTRICITY":0.0013065,"INCLINATION":98.2764,"RA_OF_ASC_NODE":123.0019,"ARG_OF_PERICENTER":247.3948,"MEAN_ANOMALY":112.5866,"EPHEMERIS_TYPE":0,"CLASSIFICATION_TYPE":"U","NORAD_CAT_ID":54029,"ELEMENT_SET_NO":999,"REV_AT_EPOCH":18802,"BSTAR":6.3435e-5,"MEAN_MOTION_DOT":2.12e-6,"MEAN_MOTION_DDOT":0},{"OBJECT_NAME":"HJ-2E","OBJECT_ID":"2022-132A","EPOCH":"2026-04-27T04:45:30.470976","MEAN_MOTION":15.21556258,"ECCENTRICITY":0.0020677,"INCLINATION":97.3815,"RA_OF_ASC_NODE":122.5228,"ARG_OF_PERICENTER":182.6105,"MEAN_ANOMALY":177.5026,"EPHEMERIS_TYPE":0,"CLASSIFICATION_TYPE":"U","NORAD_CAT_ID":54035,"ELEMENT_SET_NO":999,"REV_AT_EPOCH":19666,"BSTAR":0.00037532,"MEAN_MOTION_DOT":8.44e-5,"MEAN_MOTION_DDOT":0},{"OBJECT_NAME":"COSMOS 2561","OBJECT_ID":"2022-137A","EPOCH":"2026-04-27T04:40:00.474816","MEAN_MOTION":15.50400522,"ECCENTRICITY":0.0009168,"INCLINATION":96.9244,"RA_OF_ASC_NODE":178.1324,"ARG_OF_PERICENTER":203.2235,"MEAN_ANOMALY":156.8604,"EPHEMERIS_TYPE":0,"CLASSIFICATION_TYPE":"U","NORAD_CAT_ID":54109,"ELEMENT_SET_NO":999,"REV_AT_EPOCH":19844,"BSTAR":0.00027354,"MEAN_MOTION_DOT":0.00015493,"MEAN_MOTION_DDOT":0},{"OBJECT_NAME":"GONETS-M 23","OBJECT_ID":"2022-139A","EPOCH":"2026-04-27T03:32:01.731264","MEAN_MOTION":12.42888501,"ECCENTRICITY":0.0021385,"INCLINATION":82.5112,"RA_OF_ASC_NODE":20.0107,"ARG_OF_PERICENTER":335.9761,"MEAN_ANOMALY":24.0319,"EPHEMERIS_TYPE":0,"CLASSIFICATION_TYPE":"U","NORAD_CAT_ID":54150,"ELEMENT_SET_NO":999,"REV_AT_EPOCH":15930,"BSTAR":5.0416e-5,"MEAN_MOTION_DOT":1.7e-7,"MEAN_MOTION_DDOT":0},{"OBJECT_NAME":"GONETS-M 24","OBJECT_ID":"2022-139B","EPOCH":"2026-04-27T04:49:15.231072","MEAN_MOTION":12.42889024,"ECCENTRICITY":0.0016822,"INCLINATION":82.5025,"RA_OF_ASC_NODE":19.0723,"ARG_OF_PERICENTER":347.1849,"MEAN_ANOMALY":12.8801,"EPHEMERIS_TYPE":0,"CLASSIFICATION_TYPE":"U","NORAD_CAT_ID":54151,"ELEMENT_SET_NO":999,"REV_AT_EPOCH":15931,"BSTAR":1.9968e-5,"MEAN_MOTION_DOT":1.3e-7,"MEAN_MOTION_DDOT":0},{"OBJECT_NAME":"GONETS-M 25","OBJECT_ID":"2022-139C","EPOCH":"2026-04-27T04:29:35.408832","MEAN_MOTION":12.42888511,"ECCENTRICITY":0.0020695,"INCLINATION":82.5094,"RA_OF_ASC_NODE":19.7395,"ARG_OF_PERICENTER":344.9238,"MEAN_ANOMALY":15.1222,"EPHEMERIS_TYPE":0,"CLASSIFICATION_TYPE":"U","NORAD_CAT_ID":54152,"ELEMENT_SET_NO":999,"REV_AT_EPOCH":15931,"BSTAR":-1.6672e-5,"MEAN_MOTION_DOT":8.0e-8,"MEAN_MOTION_DDOT":0},{"OBJECT_NAME":"SKIF-D","OBJECT_ID":"2022-139D","EPOCH":"2026-04-25T21:27:24.240384","MEAN_MOTION":5.00437823,"ECCENTRICITY":0.00073983,"INCLINATION":89.9562,"RA_OF_ASC_NODE":96.6846,"ARG_OF_PERICENTER":220.6212,"MEAN_ANOMALY":139.363,"EPHEMERIS_TYPE":0,"CLASSIFICATION_TYPE":"U","NORAD_CAT_ID":54153,"ELEMENT_SET_NO":999,"REV_AT_EPOCH":6149,"BSTAR":0,"MEAN_MOTION_DOT":4.1e-7,"MEAN_MOTION_DDOT":0},{"OBJECT_NAME":"MATS","OBJECT_ID":"2022-147A","EPOCH":"2026-04-26T23:50:35.279232","MEAN_MOTION":15.05028019,"ECCENTRICITY":0.0013212,"INCLINATION":97.6838,"RA_OF_ASC_NODE":118.825,"ARG_OF_PERICENTER":23.0821,"MEAN_ANOMALY":337.0996,"EPHEMERIS_TYPE":0,"CLASSIFICATION_TYPE":"U","NORAD_CAT_ID":54227,"ELEMENT_SET_NO":999,"REV_AT_EPOCH":19006,"BSTAR":0.00027257,"MEAN_MOTION_DOT":3.815e-5,"MEAN_MOTION_DDOT":0},{"OBJECT_NAME":"JILIN-1 GAOFEN 03D54","OBJECT_ID":"2022-155D","EPOCH":"2026-04-27T03:05:53.566080","MEAN_MOTION":15.7864333,"ECCENTRICITY":0.0003872,"INCLINATION":97.6066,"RA_OF_ASC_NODE":264.3818,"ARG_OF_PERICENTER":185.1694,"MEAN_ANOMALY":174.9533,"EPHEMERIS_TYPE":0,"CLASSIFICATION_TYPE":"U","NORAD_CAT_ID":54254,"ELEMENT_SET_NO":999,"REV_AT_EPOCH":19220,"BSTAR":0.00084888,"MEAN_MOTION_DOT":0.00149894,"MEAN_MOTION_DDOT":0},{"OBJECT_NAME":"EOS-6 (OCEANSAT-3)","OBJECT_ID":"2022-158A","EPOCH":"2026-04-27T04:48:09.587808","MEAN_MOTION":14.46980078,"ECCENTRICITY":0.0002316,"INCLINATION":98.3503,"RA_OF_ASC_NODE":216.0793,"ARG_OF_PERICENTER":106.2112,"MEAN_ANOMALY":253.9336,"EPHEMERIS_TYPE":0,"CLASSIFICATION_TYPE":"U","NORAD_CAT_ID":54361,"ELEMENT_SET_NO":999,"REV_AT_EPOCH":18046,"BSTAR":9.6064e-5,"MEAN_MOTION_DOT":3.06e-6,"MEAN_MOTION_DDOT":0},{"OBJECT_NAME":"DONGPO 09","OBJECT_ID":"2022-167D","EPOCH":"2026-04-27T04:43:33.354912","MEAN_MOTION":15.35198306,"ECCENTRICITY":0.0001243,"INCLINATION":97.6861,"RA_OF_ASC_NODE":285.9856,"ARG_OF_PERICENTER":330.1712,"MEAN_ANOMALY":29.9459,"EPHEMERIS_TYPE":0,"CLASSIFICATION_TYPE":"U","NORAD_CAT_ID":54685,"ELEMENT_SET_NO":999,"REV_AT_EPOCH":18762,"BSTAR":0.0003984,"MEAN_MOTION_DOT":0.00013536,"MEAN_MOTION_DDOT":0},{"OBJECT_NAME":"DONGPO 08","OBJECT_ID":"2022-167E","EPOCH":"2026-04-27T05:17:54.376800","MEAN_MOTION":15.32648615,"ECCENTRICITY":0.0007842,"INCLINATION":97.682,"RA_OF_ASC_NODE":283.4255,"ARG_OF_PERICENTER":357.7634,"MEAN_ANOMALY":2.3571,"EPHEMERIS_TYPE":0,"CLASSIFICATION_TYPE":"U","NORAD_CAT_ID":54686,"ELEMENT_SET_NO":999,"REV_AT_EPOCH":18751,"BSTAR":0.0003942,"MEAN_MOTION_DOT":0.00012363,"MEAN_MOTION_DDOT":0},{"OBJECT_NAME":"2022-167F","OBJECT_ID":"2022-167F","EPOCH":"2026-04-26T23:22:16.142880","MEAN_MOTION":15.77401037,"ECCENTRICITY":0.0003296,"INCLINATION":97.6189,"RA_OF_ASC_NODE":299.2242,"ARG_OF_PERICENTER":211.084,"MEAN_ANOMALY":149.023,"EPHEMERIS_TYPE":0,"CLASSIFICATION_TYPE":"U","NORAD_CAT_ID":54687,"ELEMENT_SET_NO":999,"REV_AT_EPOCH":18872,"BSTAR":0.00072473,"MEAN_MOTION_DOT":0.00120655,"MEAN_MOTION_DDOT":0},{"OBJECT_NAME":"DONGPO 10","OBJECT_ID":"2022-167H","EPOCH":"2026-04-27T04:31:11.609184","MEAN_MOTION":15.33409646,"ECCENTRICITY":0.0003753,"INCLINATION":97.6905,"RA_OF_ASC_NODE":285.2236,"ARG_OF_PERICENTER":300.6967,"MEAN_ANOMALY":59.3905,"EPHEMERIS_TYPE":0,"CLASSIFICATION_TYPE":"U","NORAD_CAT_ID":54689,"ELEMENT_SET_NO":999,"REV_AT_EPOCH":18754,"BSTAR":0.00037616,"MEAN_MOTION_DOT":0.0001207,"MEAN_MOTION_DDOT":0},{"OBJECT_NAME":"JILIN-1 GAOFEN 03D48","OBJECT_ID":"2022-167P","EPOCH":"2026-04-27T05:03:21.574368","MEAN_MOTION":15.34129979,"ECCENTRICITY":0.0005084,"INCLINATION":97.6838,"RA_OF_ASC_NODE":284.6102,"ARG_OF_PERICENTER":303.0277,"MEAN_ANOMALY":57.0476,"EPHEMERIS_TYPE":0,"CLASSIFICATION_TYPE":"U","NORAD_CAT_ID":54695,"ELEMENT_SET_NO":999,"REV_AT_EPOCH":18757,"BSTAR":0.00041331,"MEAN_MOTION_DOT":0.00013582,"MEAN_MOTION_DDOT":0},{"OBJECT_NAME":"STAR VIBE","OBJECT_ID":"2023-001A","EPOCH":"2026-04-27T03:51:34.472160","MEAN_MOTION":15.41221289,"ECCENTRICITY":0.000416,"INCLINATION":97.321,"RA_OF_ASC_NODE":181.4638,"ARG_OF_PERICENTER":304.4933,"MEAN_ANOMALY":55.5921,"EPHEMERIS_TYPE":0,"CLASSIFICATION_TYPE":"U","NORAD_CAT_ID":55009,"ELEMENT_SET_NO":999,"REV_AT_EPOCH":18436,"BSTAR":0.00038273,"MEAN_MOTION_DOT":0.0001583,"MEAN_MOTION_DDOT":0}]
