OTB-3-GAZELLE           
1 54023U 22127A   26117.22150959  .00000176  00000+0  65980-4 0  9993
2 54023  98.3937 109.7063 0012856 348.1171  11.9714 14.42655504187014
ASO-S                   
1 54029U 22129A   26117.19239983  .00000212  00000+0  63435-4 0  9996
2 54029  98.2764 123.0019 0013065 247.3948 112.5866 14.52036961188021
HJ-2E                   
1 54035U 22132A   26117.19826934  .00008440  00000+0  37532-3 0  9994
2 54035  97.3815 122.5228 0020677 182.6105 177.5026 15.21556258196665
COSMOS 2561             
1 54109U 22137A   26117.19444994  .00015493  00000+0  27354-3 0  9990
2 54109  96.9244 178.1324 0009168 203.2235 156.8604 15.50400522198442
GONETS-M 23             
1 54150U 22139A   26117.14724226  .00000017  00000+0  50416-4 0  9994
2 54150  82.5112  20.0107 0021385 335.9761  24.0319 12.42888501159305
GONETS-M 24             
1 54151U 22139B   26117.20087073  .00000013  00000+0  19968-4 0  9997
2 54151  82.5025  19.0723 0016822 347.1849  12.8801 12.42889024159316
GONETS-M 25             
1 54152U 22139C   26117.18721538  .00000008  00000+0 -16672-4 0  9990
2 54152  82.5094  19.7395 0020695 344.9238  15.1222 12.42888511159318
SKIF-D                  
1 54153U 22139D   26115.89403056  .00000041  00000+0  00000+0 0  9998
2 54153  89.9562  96.6846 0007398 220.6212 139.3630  5.00437823 61497
MATS                    
1 54227U 22147A   26116.99346388  .00003815  00000+0  27257-3 0  9994
2 54227  97.6838 118.8250 0013212  23.0821 337.0996 15.05028019190067
JILIN-1 GAOFEN 03D54    
1 54254U 22155D   26117.12909220  .00149894  00000+0  84888-3 0  9990
2 54254  97.6066 264.3818 0003872 185.1694 174.9533 15.78643330192208
EOS-6 (OCEANSAT-3)      
1 54361U 22158A   26117.20011097  .00000306  00000+0  96064-4 0  9991
2 54361  98.3503 216.0793 0002316 106.2112 253.9336 14.46980078180469
DONGPO 09               
1 54685U 22167D   26117.19691383  .00013536  00000+0  39840-3 0  9997
2 54685  97.6861 285.9856 0001243 330.1712  29.9459 15.35198306187620
DONGPO 08               
1 54686U 22167E   26117.22076825  .00012363  00000+0  39420-3 0  9991
2 54686  97.6820 283.4255 0007842 357.7634   2.3571 15.32648615187519
2022-167F               
1 54687U 22167F   26116.97379795  .00120655  00000+0  72473-3 0  9994
2 54687  97.6189 299.2242 0003296 211.0840 149.0230 15.77401037188728
DONGPO 10               
1 54689U 22167H   26117.18832881  .00012070  00000+0  37616-3 0  9991
2 54689  97.6905 285.2236 0003753 300.6967  59.3905 15.33409646187544
JILIN-1 GAOFEN 03D48    
1 54695U 22167P   26117.21066637  .00013582  00000+0  41331-3 0  9998
2 54695  97.6838 284.6102 0005084 303.0277  57.0476 15.34129979187571
STAR VIBE               
1 55009U 23001A   26117.16081565  .00015830  00000+0  38273-3 0  9996
2 55009  97.3210 181.4638 0004160 304.4933  55.5921 15.41221289184365
